{
  "type": "FeatureCollection",
  "features": [
    {
      "type": "Feature",
      "properties": {
        "norad_id": 36036,
        "name": "SMOS",
        "group": "resource",
        "lat": -61.655178855699,
        "lon": -26.680281865736486,
        "alt_km": 767.2615216657987,
        "timestamp": "2025-12-10T04:57:29.262349+00:00",
        "meta_object_name": "SMOS",
        "meta_object_id": "2009-059A",
        "meta_epoch": "2025-12-09T11:09:16.407072",
        "meta_mean_motion": 14.39737201,
        "meta_eccentricity": 0.00011103,
        "meta_inclination": 98.4382,
        "meta_ra_of_asc_node": 168.5617,
        "meta_arg_of_pericenter": 84.4933,
        "meta_mean_anomaly": 275.6382,
        "meta_ephemeris_type": 0,
        "meta_classification_type": "U",
        "meta_norad_cat_id": 36036,
        "meta_element_set_no": 999,
        "meta_rev_at_epoch": 84615,
        "meta_bstar": 0.00024021854,
        "meta_mean_motion_dot": 7.09e-06,
        "meta_mean_motion_ddot": 0,
        "tle_line1": "1 36036U 09059A   25343.46477323  .00000709  00000+0  24022-3 0  9992",
        "tle_line2": "2 36036  98.4382 168.5617 0001110  84.4933 275.6382 14.39737201846156"
      },
      "geometry": {
        "type": "Point",
        "coordinates": [
          -26.680281865736486,
          -61.655178855699
        ]
      }
    },
    {
      "type": "Feature",
      "properties": {
        "norad_id": 36110,
        "name": "YAOGAN-7",
        "group": "resource",
        "lat": 78.65123937162666,
        "lon": -178.72688638679497,
        "alt_km": 643.6893229865018,
        "timestamp": "2025-12-10T04:57:29.262361+00:00",
        "meta_object_name": "YAOGAN-7",
        "meta_object_id": "2009-069A",
        "meta_epoch": "2025-12-09T15:35:14.157024",
        "meta_mean_motion": 14.7772571,
        "meta_eccentricity": 0.0023458,
        "meta_inclination": 98.0302,
        "meta_ra_of_asc_node": 225.4175,
        "meta_arg_of_pericenter": 291.8264,
        "meta_mean_anomaly": 68.0451,
        "meta_ephemeris_type": 0,
        "meta_classification_type": "U",
        "meta_norad_cat_id": 36110,
        "meta_element_set_no": 999,
        "meta_rev_at_epoch": 86163,
        "meta_bstar": 0.00017339,
        "meta_mean_motion_dot": 1.195e-05,
        "meta_mean_motion_ddot": 0,
        "tle_line1": "1 36110U 09069A   25343.64946941  .00001195  00000+0  17339-3 0  9996",
        "tle_line2": "2 36110  98.0302 225.4175 0023458 291.8264  68.0451 14.77725710861634"
      },
      "geometry": {
        "type": "Point",
        "coordinates": [
          -178.72688638679497,
          78.65123937162666
        ]
      }
    },
    {
      "type": "Feature",
      "properties": {
        "norad_id": 36605,
        "name": "TANDEM-X",
        "group": "resource",
        "lat": -49.06523435665329,
        "lon": -1.7034951682261992,
        "alt_km": 516.2719920273457,
        "timestamp": "2025-12-10T04:57:29.262371+00:00",
        "meta_object_name": "TANDEM-X",
        "meta_object_id": "2010-030A",
        "meta_epoch": "2025-12-09T11:47:13.197408",
        "meta_mean_motion": 15.19145601,
        "meta_eccentricity": 0.0002009,
        "meta_inclination": 97.445,
        "meta_ra_of_asc_node": 348.9195,
        "meta_arg_of_pericenter": 85.8365,
        "meta_mean_anomaly": 274.3099,
        "meta_ephemeris_type": 0,
        "meta_classification_type": "U",
        "meta_norad_cat_id": 36605,
        "meta_element_set_no": 999,
        "meta_rev_at_epoch": 85784,
        "meta_bstar": 0.00012722,
        "meta_mean_motion_dot": 2.605e-05,
        "meta_mean_motion_ddot": 0,
        "tle_line1": "1 36605U 10030A   25343.49112497  .00002605  00000+0  12722-3 0  9997",
        "tle_line2": "2 36605  97.4450 348.9195 0002009  85.8365 274.3099 15.19145601857845"
      },
      "geometry": {
        "type": "Point",
        "coordinates": [
          -1.7034951682261992,
          -49.06523435665329
        ]
      }
    },
    {
      "type": "Feature",
      "properties": {
        "norad_id": 36795,
        "name": "CARTOSAT-2B",
        "group": "resource",
        "lat": -0.2634275476783673,
        "lon": 33.35512946873767,
        "alt_km": 635.3842310791524,
        "timestamp": "2025-12-10T04:57:29.262381+00:00",
        "meta_object_name": "CARTOSAT-2B",
        "meta_object_id": "2010-035A",
        "meta_epoch": "2025-12-09T20:50:22.519680",
        "meta_mean_motion": 14.78781889,
        "meta_eccentricity": 0.0012934,
        "meta_inclination": 97.7851,
        "meta_ra_of_asc_node": 32.9918,
        "meta_arg_of_pericenter": 85.6915,
        "meta_mean_anomaly": 274.5774,
        "meta_ephemeris_type": 0,
        "meta_classification_type": "U",
        "meta_norad_cat_id": 36795,
        "meta_element_set_no": 999,
        "meta_rev_at_epoch": 83187,
        "meta_bstar": 0.0001058,
        "meta_mean_motion_dot": 7.28e-06,
        "meta_mean_motion_ddot": 0,
        "tle_line1": "1 36795U 10035A   25343.86831620  .00000728  00000+0  10580-3 0  9993",
        "tle_line2": "2 36795  97.7851  32.9918 0012934  85.6915 274.5774 14.78781889831878"
      },
      "geometry": {
        "type": "Point",
        "coordinates": [
          33.35512946873767,
          -0.2634275476783673
        ]
      }
    },
    {
      "type": "Feature",
      "properties": {
        "norad_id": 36834,
        "name": "YAOGAN-10",
        "group": "resource",
        "lat": 26.500383998739306,
        "lon": 0.06881313326179793,
        "alt_km": 613.3546120737838,
        "timestamp": "2025-12-10T04:57:29.262392+00:00",
        "meta_object_name": "YAOGAN-10",
        "meta_object_id": "2010-038A",
        "meta_epoch": "2025-12-09T21:18:06.054048",
        "meta_mean_motion": 14.84585915,
        "meta_eccentricity": 0.0001435,
        "meta_inclination": 97.914,
        "meta_ra_of_asc_node": 3.7292,
        "meta_arg_of_pericenter": 81.8426,
        "meta_mean_anomaly": 41.0934,
        "meta_ephemeris_type": 0,
        "meta_classification_type": "U",
        "meta_norad_cat_id": 36834,
        "meta_element_set_no": 999,
        "meta_rev_at_epoch": 82911,
        "meta_bstar": 0.00019441,
        "meta_mean_motion_dot": 1.588e-05,
        "meta_mean_motion_ddot": 0,
        "tle_line1": "1 36834U 10038A   25343.88757007  .00001588  00000+0  19441-3 0  9998",
        "tle_line2": "2 36834  97.9140   3.7292 0001435  81.8426  41.0934 14.84585915829113"
      },
      "geometry": {
        "type": "Point",
        "coordinates": [
          0.06881313326179793,
          26.500383998739306
        ]
      }
    },
    {
      "type": "Feature",
      "properties": {
        "norad_id": 37216,
        "name": "COSMO-SKYMED 4",
        "group": "resource",
        "lat": -27.586146782182045,
        "lon": 169.7175772569456,
        "alt_km": 628.5960411948336,
        "timestamp": "2025-12-10T04:57:29.262402+00:00",
        "meta_object_name": "COSMO-SKYMED 4",
        "meta_object_id": "2010-060A",
        "meta_epoch": "2025-12-09T19:21:43.790976",
        "meta_mean_motion": 14.82164679,
        "meta_eccentricity": 0.0001409,
        "meta_inclination": 97.8804,
        "meta_ra_of_asc_node": 165.174,
        "meta_arg_of_pericenter": 80.2315,
        "meta_mean_anomaly": 279.9058,
        "meta_ephemeris_type": 0,
        "meta_classification_type": "U",
        "meta_norad_cat_id": 37216,
        "meta_element_set_no": 999,
        "meta_rev_at_epoch": 81651,
        "meta_bstar": 0.00018601,
        "meta_mean_motion_dot": 1.429e-05,
        "meta_mean_motion_ddot": 0,
        "tle_line1": "1 37216U 10060A   25343.80675684  .00001429  00000+0  18601-3 0  9991",
        "tle_line2": "2 37216  97.8804 165.1740 0001409  80.2315 279.9058 14.82164679816513"
      },
      "geometry": {
        "type": "Point",
        "coordinates": [
          169.7175772569456,
          -27.586146782182045
        ]
      }
    },
    {
      "type": "Feature",
      "properties": {
        "norad_id": 37387,
        "name": "RESOURCESAT-2",
        "group": "resource",
        "lat": 50.42699708417865,
        "lon": -121.4426057109656,
        "alt_km": 814.440709157434,
        "timestamp": "2025-12-10T04:57:29.262413+00:00",
        "meta_object_name": "RESOURCESAT-2",
        "meta_object_id": "2011-015A",
        "meta_epoch": "2025-12-09T19:54:34.426368",
        "meta_mean_motion": 14.21595596,
        "meta_eccentricity": 0.0006566,
        "meta_inclination": 98.788,
        "meta_ra_of_asc_node": 47.3944,
        "meta_arg_of_pericenter": 50.1194,
        "meta_mean_anomaly": 310.0559,
        "meta_ephemeris_type": 0,
        "meta_classification_type": "U",
        "meta_norad_cat_id": 37387,
        "meta_element_set_no": 999,
        "meta_rev_at_epoch": 75927,
        "meta_bstar": 0.00014583,
        "meta_mean_motion_dot": 2.75e-06,
        "meta_mean_motion_ddot": 0,
        "tle_line1": "1 37387U 11015A   25343.82956512  .00000275  00000+0  14583-3 0  9998",
        "tle_line2": "2 37387  98.7880  47.3944 0006566  50.1194 310.0559 14.21595596759274"
      },
      "geometry": {
        "type": "Point",
        "coordinates": [
          -121.4426057109656,
          50.42699708417865
        ]
      }
    }
  ]
}